start=new Date('2022-02-21T00:00:00.000Z').valueOf();
sats=[{"EPOCH":"2022-02-20T12:45:06.473952","MEAN_ELEMENT_THEORY":"SGP4","ECCENTRICITY":"0.00014290","EPHEMERIS_TYPE":"0","APOAPSIS":"548.193","PERIAPSIS":"546.214","OBJECT_NAME":"STARLINK-2560","TIME_SYSTEM":"UTC","COUNTRY_CODE":"US","CLASSIFICATION_TYPE":"U","DECAY_DATE":null,"SEMIMAJOR_AXIS":"6925.339","ARG_OF_PERICENTER":"59.1467","RCS_SIZE":"LARGE","RA_OF_ASC_NODE":"137.3362","MEAN_MOTION_DOT":"0.00003267","CENTER_NAME":"EARTH","MEAN_MOTION_DDOT":"0.0000000000000","SITE":"AFETR","OBJECT_TYPE":"PAYLOAD","NORAD_CAT_ID":"48402","LAUNCH_DATE":"2021-05-04","PERIOD":"95.592","GP_ID":"196476200","TLE_LINE1":"1 48402U 21038BB  22051.53132493  .00003267  00000-0  23811-3 0  9998","MEAN_MOTION":"15.06403205","FILE":"3310073","INCLINATION":"53.0533","MEAN_ANOMALY":"300.9662","OBJECT_ID":"2021-038BB","REV_AT_EPOCH":"4451","BSTAR":"0.00023811000000","ELEMENT_SET_NO":"999","TLE_LINE2":"2 48402  53.0533 137.3362 0001429  59.1467 300.9662 15.06403205 44518","REF_FRAME":"TEME"},{"ELEMENT_SET_NO":"999","BSTAR":"-0.00001331500000","OBJECT_ID":"2021-038BC","REV_AT_EPOCH":"4453","REF_FRAME":"TEME","TLE_LINE2":"2 48403  53.0542 136.7441 0001489  59.5033 300.6103 15.06400707 44532","TLE_LINE1":"1 48403U 21038BC  22051.66032758 -.00000480  00000-0 -13315-4 0  9991","MEAN_MOTION":"15.06400707","MEAN_ANOMALY":"300.6103","INCLINATION":"53.0542","FILE":"3310556","PERIOD":"95.592","GP_ID":"196512760","NORAD_CAT_ID":"48403","OBJECT_TYPE":"PAYLOAD","LAUNCH_DATE":"2021-05-04","CENTER_NAME":"EARTH","MEAN_MOTION_DOT":"-0.00000480","MEAN_MOTION_DDOT":"0.0000000000000","SITE":"AFETR","SEMIMAJOR_AXIS":"6925.346","DECAY_DATE":null,"RCS_SIZE":"LARGE","RA_OF_ASC_NODE":"136.7441","ARG_OF_PERICENTER":"59.5033","APOAPSIS":"548.243","PERIAPSIS":"546.180","COUNTRY_CODE":"US","CLASSIFICATION_TYPE":"U","TIME_SYSTEM":"UTC","OBJECT_NAME":"STARLINK-2561","EPOCH":"2022-02-20T15:50:52.302912","EPHEMERIS_TYPE":"0","ECCENTRICITY":"0.00014890","MEAN_ELEMENT_THEORY":"SGP4"},{"ELEMENT_SET_NO":"999","BSTAR":"0.00001520000000","REV_AT_EPOCH":"4453","OBJECT_ID":"2021-038BD","REF_FRAME":"TEME","TLE_LINE2":"2 48404  53.0547 136.7735 0001446  57.2580 302.8548 15.06399331 44536","MEAN_MOTION":"15.06399331","TLE_LINE1":"1 48404U 21038BD  22051.65663895 -.00000055  00000-0  15200-4 0  9995","INCLINATION":"53.0547","MEAN_ANOMALY":"302.8548","FILE":"3310556","PERIOD":"95.592","GP_ID":"196513512","NORAD_CAT_ID":"48404","OBJECT_TYPE":"PAYLOAD","LAUNCH_DATE":"2021-05-04","CENTER_NAME":"EARTH","MEAN_MOTION_DOT":"-0.00000055","SITE":"AFETR","MEAN_MOTION_DDOT":"0.0000000000000","SEMIMAJOR_AXIS":"6925.351","DECAY_DATE":null,"RA_OF_ASC_NODE":"136.7735","RCS_SIZE":"LARGE","ARG_OF_PERICENTER":"57.2580","PERIAPSIS":"546.214","APOAPSIS":"548.217","CLASSIFICATION_TYPE":"U","COUNTRY_CODE":"US","OBJECT_NAME":"STARLINK-2593","TIME_SYSTEM":"UTC","EPOCH":"2022-02-20T15:45:33.605280","EPHEMERIS_TYPE":"0","ECCENTRICITY":"0.00014460","MEAN_ELEMENT_THEORY":"SGP4"},{"NORAD_CAT_ID":"48405","OBJECT_TYPE":"PAYLOAD","LAUNCH_DATE":"2021-05-04","PERIOD":"95.591","GP_ID":"196513233","MEAN_MOTION":"15.06414103","TLE_LINE1":"1 48405U 21038BE  22051.65295697  .00010992  00000-0  75536-3 0  9994","INCLINATION":"53.0538","MEAN_ANOMALY":"303.7146","FILE":"3310556","BSTAR":"0.00075536000000","ELEMENT_SET_NO":"999","REV_AT_EPOCH":"4453","OBJECT_ID":"2021-038BE","REF_FRAME":"TEME","TLE_LINE2":"2 48405  53.0538 136.7929 0001414  56.3978 303.7146 15.06414103 44537","EPOCH":"2022-02-20T15:40:15.482208","EPHEMERIS_TYPE":"0","ECCENTRICITY":"0.00014140","MEAN_ELEMENT_THEORY":"SGP4","PERIAPSIS":"546.191","APOAPSIS":"548.150","CLASSIFICATION_TYPE":"U","COUNTRY_CODE":"US","OBJECT_NAME":"STARLINK-2570","TIME_SYSTEM":"UTC","DECAY_DATE":null,"SEMIMAJOR_AXIS":"6925.305","RA_OF_ASC_NODE":"136.7929","RCS_SIZE":"LARGE","ARG_OF_PERICENTER":"56.3978","CENTER_NAME":"EARTH","MEAN_MOTION_DOT":"0.00010992","SITE":"AFETR","MEAN_MOTION_DDOT":"0.0000000000000"},{"CLASSIFICATION_TYPE":"U","COUNTRY_CODE":"US","TIME_SYSTEM":"UTC","OBJECT_NAME":"STARLINK-2568","PERIAPSIS":"546.180","APOAPSIS":"548.154","EPHEMERIS_TYPE":"0","MEAN_ELEMENT_THEORY":"SGP4","ECCENTRICITY":"0.00014250","EPOCH":"2022-02-20T12:23:52.321056","SITE":"AFETR","MEAN_MOTION_DDOT":"0.0000000000000","CENTER_NAME":"EARTH","MEAN_MOTION_DOT":"0.00007550","RA_OF_ASC_NODE":"137.3946","RCS_SIZE":"LARGE","ARG_OF_PERICENTER":"54.1263","DECAY_DATE":null,"SEMIMAJOR_AXIS":"6925.302","GP_ID":"196476700","PERIOD":"95.591","LAUNCH_DATE":"2021-05-04","NORAD_CAT_ID":"48406","OBJECT_TYPE":"PAYLOAD","REF_FRAME":"TEME","TLE_LINE2":"2 48406  53.0543 137.3946 0001425  54.1263 305.9858 15.06415304 44511","BSTAR":"0.00052499000000","ELEMENT_SET_NO":"999","REV_AT_EPOCH":"4451","OBJECT_ID":"2021-038BF","MEAN_ANOMALY":"305.9858","INCLINATION":"53.0543","FILE":"3310073","MEAN_MOTION":"15.06415304","TLE_LINE1":"1 48406U 21038BF  22051.51657779  .00007550  00000-0  52499-3 0  9992"},{"LAUNCH_DATE":"2021-05-04","OBJECT_TYPE":"PAYLOAD","NORAD_CAT_ID":"48407","GP_ID":"196513261","PERIOD":"95.591","FILE":"3310556","INCLINATION":"53.0541","MEAN_ANOMALY":"281.5095","MEAN_MOTION":"15.06413482","TLE_LINE1":"1 48407U 21038BG  22051.64558114 -.00000144  00000-0  92535-5 0  9990","TLE_LINE2":"2 48407  53.0541 136.8052 0001652  78.6079 281.5095 15.06413482 44528","REF_FRAME":"TEME","REV_AT_EPOCH":"4452","OBJECT_ID":"2021-038BG","BSTAR":"0.00000925350000","ELEMENT_SET_NO":"999","ECCENTRICITY":"0.00016520","MEAN_ELEMENT_THEORY":"SGP4","EPHEMERIS_TYPE":"0","EPOCH":"2022-02-20T15:29:38.210496","TIME_SYSTEM":"UTC","OBJECT_NAME":"STARLINK-2595","CLASSIFICATION_TYPE":"U","COUNTRY_CODE":"US","PERIAPSIS":"546.028","APOAPSIS":"548.316","ARG_OF_PERICENTER":"78.6079","RA_OF_ASC_NODE":"136.8052","RCS_SIZE":"LARGE","SEMIMAJOR_AXIS":"6925.307","DECAY_DATE":null,"SITE":"AFETR","MEAN_MOTION_DDOT":"0.0000000000000","MEAN_MOTION_DOT":"-0.00000144","CENTER_NAME":"EARTH"},{"EPOCH":"2022-02-20T16:59:51.793440","ECCENTRICITY":"0.00015570","MEAN_ELEMENT_THEORY":"SGP4","EPHEMERIS_TYPE":"0","APOAPSIS":"548.282","PERIAPSIS":"546.125","OBJECT_NAME":"STARLINK-2592","TIME_SYSTEM":"UTC","CLASSIFICATION_TYPE":"U","COUNTRY_CODE":"US","SEMIMAJOR_AXIS":"6925.338","DECAY_DATE":null,"ARG_OF_PERICENTER":"65.8878","RCS_SIZE":"LARGE","RA_OF_ASC_NODE":"136.5274","MEAN_MOTION_DOT":"0.00002649","CENTER_NAME":"EARTH","MEAN_MOTION_DDOT":"0.0000000000000","SITE":"AFETR","OBJECT_TYPE":"PAYLOAD","NORAD_CAT_ID":"48408","LAUNCH_DATE":"2021-05-04","PERIOD":"95.592","GP_ID":"196513012","TLE_LINE1":"1 48408U 21038BH  22051.70823835  .00002649  00000-0  19666-3 0  9996","MEAN_MOTION":"15.06403290","FILE":"3310556","INCLINATION":"53.0538","MEAN_ANOMALY":"294.2273","OBJECT_ID":"2021-038BH","REV_AT_EPOCH":"4453","ELEMENT_SET_NO":"999","BSTAR":"0.00019666000000","TLE_LINE2":"2 48408  53.0538 136.5274 0001557  65.8878 294.2273 15.06403290 44533","REF_FRAME":"TEME"},{"TLE_LINE2":"2 48409  53.0542 141.4307 0001588  48.2490 311.8634 15.06403823 44483","REF_FRAME":"TEME","OBJECT_ID":"2021-038BJ","REV_AT_EPOCH":"4448","BSTAR":"0.00021556000000","ELEMENT_SET_NO":"999","FILE":"3310556","MEAN_ANOMALY":"311.8634","INCLINATION":"53.0542","TLE_LINE1":"1 48409U 21038BJ  22051.73174758  .00002931  00000-0  21556-3 0  9998","MEAN_MOTION":"15.06403823","GP_ID":"196513734","PERIOD":"95.592","LAUNCH_DATE":"2021-05-04","OBJECT_TYPE":"PAYLOAD","NORAD_CAT_ID":"48409","MEAN_MOTION_DDOT":"0.0000000000000","SITE":"AFETR","MEAN_MOTION_DOT":"0.00002931","CENTER_NAME":"EARTH","ARG_OF_PERICENTER":"48.2490","RCS_SIZE":"LARGE","RA_OF_ASC_NODE":"141.4307","DECAY_DATE":null,"SEMIMAJOR_AXIS":"6925.337","OBJECT_NAME":"STARLINK-2596","TIME_SYSTEM":"UTC","CLASSIFICATION_TYPE":"U","COUNTRY_CODE":"US","APOAPSIS":"548.302","PERIAPSIS":"546.102","MEAN_ELEMENT_THEORY":"SGP4","ECCENTRICITY":"0.00015880","EPHEMERIS_TYPE":"0","EPOCH":"2022-02-20T17:33:42.990912"},{"NORAD_CAT_ID":"48410","OBJECT_TYPE":"PAYLOAD","LAUNCH_DATE":"2021-05-04","PERIOD":"95.592","GP_ID":"196512009","MEAN_MOTION":"15.06400294","TLE_LINE1":"1 48410U 21038BK  22051.91667824 -.00003721  00000-0 -23100-3 0  9998","INCLINATION":"53.0553","MEAN_ANOMALY":"191.1401","FILE":"3310556","ELEMENT_SET_NO":"999","BSTAR":"-0.00023100000000","REV_AT_EPOCH":"359","OBJECT_ID":"2021-038BK","REF_FRAME":"TEME","TLE_LINE2":"2 48410  53.0553  90.6037 0001470  67.4545 191.1401 15.06400294  3593","EPOCH":"2022-02-20T22:00:00.999936","EPHEMERIS_TYPE":"0","MEAN_ELEMENT_THEORY":"SGP4","ECCENTRICITY":"0.00014700","PERIAPSIS":"546.195","APOAPSIS":"548.231","COUNTRY_CODE":"US","CLASSIFICATION_TYPE":"U","TIME_SYSTEM":"UTC","OBJECT_NAME":"STARLINK-2563","SEMIMAJOR_AXIS":"6925.348","DECAY_DATE":null,"RA_OF_ASC_NODE":"90.6037","RCS_SIZE":"LARGE","ARG_OF_PERICENTER":"67.4545","CENTER_NAME":"EARTH","MEAN_MOTION_DOT":"-0.00003721","SITE":"AFETR","MEAN_MOTION_DDOT":"0.0000000000000"},{"OBJECT_NAME":"STARLINK-2505","TIME_SYSTEM":"UTC","COUNTRY_CODE":"US","CLASSIFICATION_TYPE":"U","PERIAPSIS":"546.043","APOAPSIS":"548.416","MEAN_ELEMENT_THEORY":"SGP4","ECCENTRICITY":"0.00017130","EPHEMERIS_TYPE":"0","EPOCH":"2022-02-20T22:00:00.999936","SITE":"AFETR","MEAN_MOTION_DDOT":"0.0000000000000","MEAN_MOTION_DOT":"0.00032924","CENTER_NAME":"EARTH","ARG_OF_PERICENTER":"58.3610","RA_OF_ASC_NODE":"85.6007","RCS_SIZE":"LARGE","DECAY_DATE":null,"SEMIMAJOR_AXIS":"6925.365","GP_ID":"196512761","PERIOD":"95.592","LAUNCH_DATE":"2021-05-04","OBJECT_TYPE":"PAYLOAD","NORAD_CAT_ID":"48411","TLE_LINE2":"2 48411  53.0545  85.6007 0001713  58.3610 107.6731 15.06394786  3594","REF_FRAME":"TEME","REV_AT_EPOCH":"359","OBJECT_ID":"2021-038BL","BSTAR":"0.00221920000000","ELEMENT_SET_NO":"999","FILE":"3310556","INCLINATION":"53.0545","MEAN_ANOMALY":"107.6731","MEAN_MOTION":"15.06394786","TLE_LINE1":"1 48411U 21038BL  22051.91667824  .00032924  00000-0  22192-2 0  9993"}];
